[{"OBJECT_NAME":"YAOGAN-14","OBJECT_ID":"2012-021A","EPOCH":"2026-03-09T23:13:16.463424","MEAN_MOTION":15.26486019,"ECCENTRICITY":0.00056417,"INCLINATION":97.2863,"RA_OF_ASC_NODE":208.4378,"ARG_OF_PERICENTER":161.6562,"MEAN_ANOMALY":198.4882,"EPHEMERIS_TYPE":0,"CLASSIFICATION_TYPE":"U","NORAD_CAT_ID":38257,"ELEMENT_SET_NO":999,"REV_AT_EPOCH":77067,"BSTAR":0.00037795498,"MEAN_MOTION_DOT":9.798e-5,"MEAN_MOTION_DDOT":0},{"OBJECT_NAME":"STARLINK-31167","OBJECT_ID":"2024-005S","EPOCH":"2026-03-09T00:52:07.874400","MEAN_MOTION":15.27573821,"ECCENTRICITY":9.415e-5,"INCLINATION":43.0006,"RA_OF_ASC_NODE":77.9924,"ARG_OF_PERICENTER":260.026,"MEAN_ANOMALY":100.0485,"EPHEMERIS_TYPE":0,"CLASSIFICATION_TYPE":"U","NORAD_CAT_ID":58744,"ELEMENT_SET_NO":999,"REV_AT_EPOCH":12210,"BSTAR":2.838807e-6,"MEAN_MOTION_DOT":-1.84e-6,"MEAN_MOTION_DDOT":0}]
